CCSDS_OMM_VERS = 2.0
CREATION_DATE  = 
ORIGINATOR     = 

OBJECT_NAME    = 2025-313Z
OBJECT_ID      = 2025-313Z
CENTER_NAME    = EARTH
REF_FRAME      = TEME
TIME_SYSTEM    = UTC
MEAN_ELEMENT_THEORY = SGP/SGP4

EPOCH          = 2026-01-15T18:45:09.274176
MEAN_MOTION    = 15.20017470
ECCENTRICITY   = .0015681
INCLINATION    = 97.4117
RA_OF_ASC_NODE = 92.9254
ARG_OF_PERICENTER = 170.2729
MEAN_ANOMALY   = 189.8812

EPHEMERIS_TYPE = 0
CLASSIFICATION_TYPE = U
NORAD_CAT_ID   = 67271
ELEMENT_SET_NO = 999
REV_AT_EPOCH   = 277
BSTAR          = .13439E-3
MEAN_MOTION_DOT = .2836E-4
MEAN_MOTION_DDOT = 0

CCSDS_OMM_VERS = 2.0
CREATION_DATE  = 
ORIGINATOR     = 

OBJECT_NAME    = 2025-313AA
OBJECT_ID      = 2025-313AA
CENTER_NAME    = EARTH
REF_FRAME      = TEME
TIME_SYSTEM    = UTC
MEAN_ELEMENT_THEORY = SGP/SGP4

EPOCH          = 2026-01-15T18:41:36.458880
MEAN_MOTION    = 15.20362974
ECCENTRICITY   = .0015402
INCLINATION    = 97.4122
RA_OF_ASC_NODE = 92.9272
ARG_OF_PERICENTER = 174.6507
MEAN_ANOMALY   = 185.4896

EPHEMERIS_TYPE = 0
CLASSIFICATION_TYPE = U
NORAD_CAT_ID   = 67272
ELEMENT_SET_NO = 999
REV_AT_EPOCH   = 277
BSTAR          = .30362E-3
MEAN_MOTION_DOT = .6561E-4
MEAN_MOTION_DDOT = 0

CCSDS_OMM_VERS = 2.0
CREATION_DATE  = 
ORIGINATOR     = 

OBJECT_NAME    = 2025-313AB
OBJECT_ID      = 2025-313AB
CENTER_NAME    = EARTH
REF_FRAME      = TEME
TIME_SYSTEM    = UTC
MEAN_ELEMENT_THEORY = SGP/SGP4

EPOCH          = 2026-01-15T18:44:58.634880
MEAN_MOTION    = 15.20001235
ECCENTRICITY   = .0014592
INCLINATION    = 97.4135
RA_OF_ASC_NODE = 92.9287
ARG_OF_PERICENTER = 178.6677
MEAN_ANOMALY   = 181.4600

EPHEMERIS_TYPE = 0
CLASSIFICATION_TYPE = U
NORAD_CAT_ID   = 67273
ELEMENT_SET_NO = 999
REV_AT_EPOCH   = 277
BSTAR          = .97181E-4
MEAN_MOTION_DOT = .2029E-4
MEAN_MOTION_DDOT = 0

CCSDS_OMM_VERS = 2.0
CREATION_DATE  = 
ORIGINATOR     = 

OBJECT_NAME    = 2025-313AC
OBJECT_ID      = 2025-313AC
CENTER_NAME    = EARTH
REF_FRAME      = TEME
TIME_SYSTEM    = UTC
MEAN_ELEMENT_THEORY = SGP/SGP4

EPOCH          = 2026-01-15T18:43:15.187296
MEAN_MOTION    = 15.20169189
ECCENTRICITY   = .0015357
INCLINATION    = 97.4111
RA_OF_ASC_NODE = 92.9333
ARG_OF_PERICENTER = 173.6688
MEAN_ANOMALY   = 186.4744

EPHEMERIS_TYPE = 0
CLASSIFICATION_TYPE = U
NORAD_CAT_ID   = 67274
ELEMENT_SET_NO = 999
REV_AT_EPOCH   = 277
BSTAR          = .18012E-3
MEAN_MOTION_DOT = .3841E-4
MEAN_MOTION_DDOT = 0

CCSDS_OMM_VERS = 2.0
CREATION_DATE  = 
ORIGINATOR     = 

OBJECT_NAME    = 2025-313AD
OBJECT_ID      = 2025-313AD
CENTER_NAME    = EARTH
REF_FRAME      = TEME
TIME_SYSTEM    = UTC
MEAN_ELEMENT_THEORY = SGP/SGP4

EPOCH          = 2026-01-15T15:32:44.931264
MEAN_MOTION    = 15.20229409
ECCENTRICITY   = .0014571
INCLINATION    = 97.4086
RA_OF_ASC_NODE = 92.7992
ARG_OF_PERICENTER = 176.9790
MEAN_ANOMALY   = 183.1536

EPHEMERIS_TYPE = 0
CLASSIFICATION_TYPE = U
NORAD_CAT_ID   = 67275
ELEMENT_SET_NO = 999
REV_AT_EPOCH   = 275
BSTAR          = .18952E-3
MEAN_MOTION_DOT = .4051E-4
MEAN_MOTION_DDOT = 0

CCSDS_OMM_VERS = 2.0
CREATION_DATE  = 
ORIGINATOR     = 

OBJECT_NAME    = 2025-313AE
OBJECT_ID      = 2025-313AE
CENTER_NAME    = EARTH
REF_FRAME      = TEME
TIME_SYSTEM    = UTC
MEAN_ELEMENT_THEORY = SGP/SGP4

EPOCH          = 2026-01-15T17:07:28.999776
MEAN_MOTION    = 15.20229409
ECCENTRICITY   = .0014514
INCLINATION    = 97.4091
RA_OF_ASC_NODE = 92.8646
ARG_OF_PERICENTER = 176.8118
MEAN_ANOMALY   = 183.3213

EPHEMERIS_TYPE = 0
CLASSIFICATION_TYPE = U
NORAD_CAT_ID   = 67276
ELEMENT_SET_NO = 999
REV_AT_EPOCH   = 276
BSTAR          = .198E-3
MEAN_MOTION_DOT = .4235E-4
MEAN_MOTION_DDOT = 0

CCSDS_OMM_VERS = 2.0
CREATION_DATE  = 
ORIGINATOR     = 

OBJECT_NAME    = 2025-313AF
OBJECT_ID      = 2025-313AF
CENTER_NAME    = EARTH
REF_FRAME      = TEME
TIME_SYSTEM    = UTC
MEAN_ELEMENT_THEORY = SGP/SGP4

EPOCH          = 2026-01-15T18:42:36.214848
MEAN_MOTION    = 15.20195162
ECCENTRICITY   = .0014513
INCLINATION    = 97.4093
RA_OF_ASC_NODE = 92.9296
ARG_OF_PERICENTER = 176.3762
MEAN_ANOMALY   = 183.7581

EPHEMERIS_TYPE = 0
CLASSIFICATION_TYPE = U
NORAD_CAT_ID   = 67277
ELEMENT_SET_NO = 999
REV_AT_EPOCH   = 277
BSTAR          = .17608E-3
MEAN_MOTION_DOT = .3755E-4
MEAN_MOTION_DDOT = 0

CCSDS_OMM_VERS = 2.0
CREATION_DATE  = 
ORIGINATOR     = 

OBJECT_NAME    = 2025-313AG
OBJECT_ID      = 2025-313AG
CENTER_NAME    = EARTH
REF_FRAME      = TEME
TIME_SYSTEM    = UTC
MEAN_ELEMENT_THEORY = SGP/SGP4

EPOCH          = 2026-01-15T17:07:34.422240
MEAN_MOTION    = 15.20211507
ECCENTRICITY   = .0014471
INCLINATION    = 97.4095
RA_OF_ASC_NODE = 92.8659
ARG_OF_PERICENTER = 176.5120
MEAN_ANOMALY   = 183.6219

EPHEMERIS_TYPE = 0
CLASSIFICATION_TYPE = U
NORAD_CAT_ID   = 67278
ELEMENT_SET_NO = 999
REV_AT_EPOCH   = 277
BSTAR          = .17901E-3
MEAN_MOTION_DOT = .382E-4
MEAN_MOTION_DDOT = 0

CCSDS_OMM_VERS = 2.0
CREATION_DATE  = 
ORIGINATOR     = 

OBJECT_NAME    = GALAPAGOS-UTE-SWSU
OBJECT_ID      = 2025-313AH
CENTER_NAME    = EARTH
REF_FRAME      = TEME
TIME_SYSTEM    = UTC
MEAN_ELEMENT_THEORY = SGP/SGP4

EPOCH          = 2026-01-15T18:41:26.082240
MEAN_MOTION    = 15.20288230
ECCENTRICITY   = .0015043
INCLINATION    = 97.4106
RA_OF_ASC_NODE = 92.9338
ARG_OF_PERICENTER = 173.2982
MEAN_ANOMALY   = 186.8458

EPHEMERIS_TYPE = 0
CLASSIFICATION_TYPE = U
NORAD_CAT_ID   = 67279
ELEMENT_SET_NO = 999
REV_AT_EPOCH   = 277
BSTAR          = .2054E-3
MEAN_MOTION_DOT = .4405E-4
MEAN_MOTION_DDOT = 0

CCSDS_OMM_VERS = 2.0
CREATION_DATE  = 
ORIGINATOR     = 

OBJECT_NAME    = 2025-313AJ
OBJECT_ID      = 2025-313AJ
CENTER_NAME    = EARTH
REF_FRAME      = TEME
TIME_SYSTEM    = UTC
MEAN_ELEMENT_THEORY = SGP/SGP4

EPOCH          = 2026-01-15T18:35:37.550688
MEAN_MOTION    = 15.20581055
ECCENTRICITY   = .0013956
INCLINATION    = 97.4176
RA_OF_ASC_NODE = 92.9432
ARG_OF_PERICENTER = 169.9114
MEAN_ANOMALY   = 190.2404

EPHEMERIS_TYPE = 0
CLASSIFICATION_TYPE = U
NORAD_CAT_ID   = 67280
ELEMENT_SET_NO = 999
REV_AT_EPOCH   = 277
BSTAR          = .15545E-3
MEAN_MOTION_DOT = .3344E-4
MEAN_MOTION_DDOT = 0

CCSDS_OMM_VERS = 2.0
CREATION_DATE  = 
ORIGINATOR     = 

OBJECT_NAME    = 2025-313AK
OBJECT_ID      = 2025-313AK
CENTER_NAME    = EARTH
REF_FRAME      = TEME
TIME_SYSTEM    = UTC
MEAN_ELEMENT_THEORY = SGP/SGP4

EPOCH          = 2026-01-15T18:34:03.950976
MEAN_MOTION    = 15.20672424
ECCENTRICITY   = .0012684
INCLINATION    = 97.4060
RA_OF_ASC_NODE = 92.9277
ARG_OF_PERICENTER = 168.6758
MEAN_ANOMALY   = 191.4765

EPHEMERIS_TYPE = 0
CLASSIFICATION_TYPE = U
NORAD_CAT_ID   = 67281
ELEMENT_SET_NO = 999
REV_AT_EPOCH   = 277
BSTAR          = .15473E-3
MEAN_MOTION_DOT = .3336E-4
MEAN_MOTION_DDOT = 0

CCSDS_OMM_VERS = 2.0
CREATION_DATE  = 
ORIGINATOR     = 

OBJECT_NAME    = 2025-313AL
OBJECT_ID      = 2025-313AL
CENTER_NAME    = EARTH
REF_FRAME      = TEME
TIME_SYSTEM    = UTC
MEAN_ELEMENT_THEORY = SGP/SGP4

EPOCH          = 2026-01-15T18:27:46.778688
MEAN_MOTION    = 15.21050907
ECCENTRICITY   = .0011466
INCLINATION    = 97.4110
RA_OF_ASC_NODE = 92.9333
ARG_OF_PERICENTER = 167.5701
MEAN_ANOMALY   = 192.5819

EPHEMERIS_TYPE = 0
CLASSIFICATION_TYPE = U
NORAD_CAT_ID   = 67282
ELEMENT_SET_NO = 999
REV_AT_EPOCH   = 277
BSTAR          = .16074E-3
MEAN_MOTION_DOT = .3506E-4
MEAN_MOTION_DDOT = 0

