2025-313Z               
1 67271U 25313Z   26015.78135734  .00002836  00000+0  13439-3 0  9990
2 67271  97.4117  92.9254 0015681 170.2729 189.8812 15.20017470  2774
2025-313AA              
1 67272U 25313AA  26015.77889420  .00006561  00000+0  30362-3 0  9991
2 67272  97.4122  92.9272 0015402 174.6507 185.4896 15.20362974  2770
2025-313AB              
1 67273U 25313AB  26015.78123420  .00002029  00000+0  97181-4 0  9992
2 67273  97.4135  92.9287 0014592 178.6677 181.4600 15.20001235  2771
2025-313AC              
1 67274U 25313AC  26015.78003689  .00003841  00000+0  18012-3 0  9995
2 67274  97.4111  92.9333 0015357 173.6688 186.4744 15.20169189  2772
2025-313AD              
1 67275U 25313AD  26015.64774226  .00004051  00000+0  18952-3 0  9990
2 67275  97.4086  92.7992 0014571 176.9790 183.1536 15.20229409  2753
2025-313AE              
1 67276U 25313AE  26015.71353009  .00004235  00000+0  19800-3 0  9998
2 67276  97.4091  92.8646 0014514 176.8118 183.3213 15.20229409  2762
2025-313AF              
1 67277U 25313AF  26015.77958582  .00003755  00000+0  17608-3 0  9992
2 67277  97.4093  92.9296 0014513 176.3762 183.7581 15.20195162  2777
2025-313AG              
1 67278U 25313AG  26015.71359285  .00003820  00000+0  17901-3 0  9991
2 67278  97.4095  92.8659 0014471 176.5120 183.6219 15.20211507  2774
GALAPAGOS-UTE-SWSU      
1 67279U 25313AH  26015.77877410  .00004405  00000+0  20540-3 0  9996
2 67279  97.4106  92.9338 0015043 173.2982 186.8458 15.20288230  2776
2025-313AJ              
1 67280U 25313AJ  26015.77474017  .00003344  00000+0  15545-3 0  9994
2 67280  97.4176  92.9432 0013956 169.9114 190.2404 15.20581055  2771
2025-313AK              
1 67281U 25313AK  26015.77365684  .00003336  00000+0  15473-3 0  9995
2 67281  97.4060  92.9277 0012684 168.6758 191.4765 15.20672424  2772
2025-313AL              
1 67282U 25313AL  26015.76929142  .00003506  00000+0  16074-3 0  9997
2 67282  97.4110  92.9333 0011466 167.5701 192.5819 15.21050907  2774
